QZS-1R                  
1 49336U 21096A   24215.60624745 -.00000330  00000+0  00000+0 0  9996
2 49336  36.0365  89.8220 0759005 272.3715 298.0998  1.00242233 10140
